start=new Date('2022-11-24T00:00:00.000Z').valueOf();
sats=[{"TLE_LINE1":"1 51987U 22025AH  22327.58986721 -.00000480  00000-0 -12059-4 0  9998","APOAPSIS":"541.267","MEAN_ELEMENT_THEORY":"SGP4","SITE":"AFETR","PERIAPSIS":"538.309","ELEMENT_SET_NO":"999","RCS_SIZE":"LARGE","NORAD_CAT_ID":"51987","BSTAR":"-0.00001205900000","COUNTRY_CODE":"US","LAUNCH_DATE":"2022-03-09","ARG_OF_PERICENTER":"34.8484","INCLINATION":"53.2186","REV_AT_EPOCH":"3958","MEAN_MOTION_DDOT":"0.0000000000000","DECAY_DATE":null,"CENTER_NAME":"EARTH","PERIOD":"95.438","OBJECT_ID":"2022-025AH","OBJECT_NAME":"STARLINK-3644","TIME_SYSTEM":"UTC","ECCENTRICITY":"0.00021380","MEAN_ANOMALY":"325.2648","OBJECT_TYPE":"PAYLOAD","CLASSIFICATION_TYPE":"U","FILE":"3668355","EPHEMERIS_TYPE":"0","GP_ID":"218601699","RA_OF_ASC_NODE":"35.5684","REF_FRAME":"TEME","MEAN_MOTION_DOT":"-0.00000480","MEAN_MOTION":"15.08826082","EPOCH":"2022-11-23T14:09:24.526944","TLE_LINE2":"2 51987  53.2186  35.5684 0002138  34.8484 325.2648 15.08826082 39588","SEMIMAJOR_AXIS":"6917.923"},{"PERIAPSIS":"538.127","ELEMENT_SET_NO":"999","TLE_LINE1":"1 51988U 22025AJ  22327.70393262  .00002013  00000-0  14454-3 0  9997","MEAN_ELEMENT_THEORY":"SGP4","APOAPSIS":"541.382","SITE":"AFETR","BSTAR":"0.00014454000000","COUNTRY_CODE":"US","LAUNCH_DATE":"2022-03-09","ARG_OF_PERICENTER":"34.5547","INCLINATION":"53.2173","RCS_SIZE":"LARGE","NORAD_CAT_ID":"51988","PERIOD":"95.438","OBJECT_ID":"2022-025AJ","TIME_SYSTEM":"UTC","OBJECT_NAME":"STARLINK-3640","MEAN_ANOMALY":"325.5598","ECCENTRICITY":"0.00023530","REV_AT_EPOCH":"3960","MEAN_MOTION_DDOT":"0.0000000000000","DECAY_DATE":null,"CENTER_NAME":"EARTH","MEAN_MOTION_DOT":"0.00002013","MEAN_MOTION":"15.08836949","EPOCH":"2022-11-23T16:53:39.778368","TLE_LINE2":"2 51988  53.2173  35.0610 0002353  34.5547 325.5598 15.08836949 39608","SEMIMAJOR_AXIS":"6917.890","OBJECT_TYPE":"PAYLOAD","CLASSIFICATION_TYPE":"U","FILE":"3668355","RA_OF_ASC_NODE":"35.0610","GP_ID":"218601949","EPHEMERIS_TYPE":"0","REF_FRAME":"TEME"},{"NORAD_CAT_ID":"51989","RCS_SIZE":"LARGE","LAUNCH_DATE":"2022-03-09","INCLINATION":"53.2201","ARG_OF_PERICENTER":"32.3332","BSTAR":"0.00003505300000","COUNTRY_CODE":"US","APOAPSIS":"541.270","TLE_LINE1":"1 51989U 22025AK  22327.45369750  .00000270  00000-0  35053-4 0  9997","MEAN_ELEMENT_THEORY":"SGP4","SITE":"AFETR","PERIAPSIS":"538.208","ELEMENT_SET_NO":"999","FILE":"3668134","CLASSIFICATION_TYPE":"U","REF_FRAME":"TEME","GP_ID":"218544251","EPHEMERIS_TYPE":"0","RA_OF_ASC_NODE":"36.1820","OBJECT_TYPE":"PAYLOAD","SEMIMAJOR_AXIS":"6917.874","TLE_LINE2":"2 51989  53.2201  36.1820 0002213  32.3332 327.7796 15.08842141 39569","MEAN_MOTION_DOT":"0.00000270","MEAN_MOTION":"15.08842141","EPOCH":"2022-11-23T10:53:19.464000","DECAY_DATE":null,"CENTER_NAME":"EARTH","MEAN_MOTION_DDOT":"0.0000000000000","REV_AT_EPOCH":"3956","OBJECT_ID":"2022-025AK","ECCENTRICITY":"0.00022130","MEAN_ANOMALY":"327.7796","TIME_SYSTEM":"UTC","OBJECT_NAME":"STARLINK-3642","PERIOD":"95.437"},{"PERIAPSIS":"538.475","ELEMENT_SET_NO":"999","APOAPSIS":"541.089","TLE_LINE1":"1 51990U 22025AL  22327.55490340 -.00001639  00000-0 -84948-4 0  9999","MEAN_ELEMENT_THEORY":"SGP4","SITE":"AFETR","BSTAR":"-0.00008494800000","COUNTRY_CODE":"US","LAUNCH_DATE":"2022-03-09","ARG_OF_PERICENTER":"51.9335","INCLINATION":"53.2194","RCS_SIZE":"LARGE","NORAD_CAT_ID":"51990","PERIOD":"95.438","OBJECT_ID":"2022-025AL","TIME_SYSTEM":"UTC","OBJECT_NAME":"STARLINK-3657","MEAN_ANOMALY":"308.1828","ECCENTRICITY":"0.00018890","REV_AT_EPOCH":"3985","MEAN_MOTION_DDOT":"0.0000000000000","DECAY_DATE":null,"CENTER_NAME":"EARTH","MEAN_MOTION_DOT":"-0.00001639","MEAN_MOTION":"15.08828086","EPOCH":"2022-11-23T13:19:03.653760","TLE_LINE2":"2 51990  53.2194  15.7120 0001889  51.9335 308.1828 15.08828086 39859","SEMIMAJOR_AXIS":"6917.917","OBJECT_TYPE":"PAYLOAD","CLASSIFICATION_TYPE":"U","FILE":"3668134","EPHEMERIS_TYPE":"0","GP_ID":"218545502","RA_OF_ASC_NODE":"15.7120","REF_FRAME":"TEME"},{"MEAN_MOTION":"15.08836343","MEAN_MOTION_DOT":"0.00000943","EPOCH":"2022-11-23T10:42:43.854624","TLE_LINE2":"2 51991  53.2183  36.2129 0001912  50.9545 309.1617 15.08836343 39564","SEMIMAJOR_AXIS":"6917.892","OBJECT_TYPE":"PAYLOAD","CLASSIFICATION_TYPE":"U","FILE":"3668134","RA_OF_ASC_NODE":"36.2129","GP_ID":"218545729","EPHEMERIS_TYPE":"0","REF_FRAME":"TEME","PERIOD":"95.438","OBJECT_ID":"2022-025AM","TIME_SYSTEM":"UTC","OBJECT_NAME":"STARLINK-3652","MEAN_ANOMALY":"309.1617","ECCENTRICITY":"0.00019120","REV_AT_EPOCH":"3956","MEAN_MOTION_DDOT":"0.0000000000000","CENTER_NAME":"EARTH","DECAY_DATE":null,"BSTAR":"0.00007732200000","COUNTRY_CODE":"US","LAUNCH_DATE":"2022-03-09","ARG_OF_PERICENTER":"50.9545","INCLINATION":"53.2183","RCS_SIZE":"LARGE","NORAD_CAT_ID":"51991","PERIAPSIS":"538.434","ELEMENT_SET_NO":"999","APOAPSIS":"541.079","TLE_LINE1":"1 51991U 22025AM  22327.44634091  .00000943  00000-0  77322-4 0  9994","MEAN_ELEMENT_THEORY":"SGP4","SITE":"AFETR"},{"ELEMENT_SET_NO":"999","PERIAPSIS":"538.037","APOAPSIS":"541.409","TLE_LINE1":"1 51992U 22025AN  22327.87505414  .00000734  00000-0  64201-4 0  9998","MEAN_ELEMENT_THEORY":"SGP4","SITE":"AFETR","BSTAR":"0.00006420100000","COUNTRY_CODE":"US","LAUNCH_DATE":"2022-03-09","INCLINATION":"53.2192","ARG_OF_PERICENTER":"30.8470","NORAD_CAT_ID":"51992","RCS_SIZE":"LARGE","PERIOD":"95.437","OBJECT_ID":"2022-025AN","MEAN_ANOMALY":"329.2665","ECCENTRICITY":"0.00024370","TIME_SYSTEM":"UTC","OBJECT_NAME":"STARLINK-3643","REV_AT_EPOCH":"3947","CENTER_NAME":"EARTH","DECAY_DATE":null,"MEAN_MOTION_DDOT":"0.0000000000000","MEAN_MOTION":"15.08847233","MEAN_MOTION_DOT":"0.00000734","EPOCH":"2022-11-23T21:00:04.677696","SEMIMAJOR_AXIS":"6917.858","TLE_LINE2":"2 51992  53.2192  14.2880 0002437  30.8470 329.2665 15.08847233 39478","OBJECT_TYPE":"PAYLOAD","FILE":"3668355","CLASSIFICATION_TYPE":"U","REF_FRAME":"TEME","EPHEMERIS_TYPE":"0","GP_ID":"218601449","RA_OF_ASC_NODE":"14.2880"},{"EPOCH":"2022-11-23T15:12:57.657024","MEAN_MOTION":"15.08850488","MEAN_MOTION_DOT":"0.00002072","TLE_LINE2":"2 51993  53.2178  35.3666 0002138  40.1991 319.9159 15.08850488 39592","SEMIMAJOR_AXIS":"6917.848","OBJECT_TYPE":"PAYLOAD","GP_ID":"218602701","EPHEMERIS_TYPE":"0","RA_OF_ASC_NODE":"35.3666","REF_FRAME":"TEME","CLASSIFICATION_TYPE":"U","FILE":"3668355","PERIOD":"95.437","TIME_SYSTEM":"UTC","OBJECT_NAME":"STARLINK-3648","ECCENTRICITY":"0.00021380","MEAN_ANOMALY":"319.9159","OBJECT_ID":"2022-025AP","REV_AT_EPOCH":"3959","MEAN_MOTION_DDOT":"0.0000000000000","CENTER_NAME":"EARTH","DECAY_DATE":null,"COUNTRY_CODE":"US","BSTAR":"0.00014823000000","ARG_OF_PERICENTER":"40.1991","INCLINATION":"53.2178","LAUNCH_DATE":"2022-03-09","RCS_SIZE":"LARGE","NORAD_CAT_ID":"51993","PERIAPSIS":"538.234","ELEMENT_SET_NO":"999","SITE":"AFETR","MEAN_ELEMENT_THEORY":"SGP4","TLE_LINE1":"1 51993U 22025AP  22327.63400066  .00002072  00000-0  14823-3 0  9991","APOAPSIS":"541.192"},{"CENTER_NAME":"EARTH","DECAY_DATE":null,"MEAN_MOTION_DDOT":"0.0000000000000","REV_AT_EPOCH":"4101","OBJECT_ID":"2022-025AQ","MEAN_ANOMALY":"322.2428","ECCENTRICITY":"0.00020640","OBJECT_NAME":"STARLINK-3647","TIME_SYSTEM":"UTC","PERIOD":"95.438","FILE":"3668352","CLASSIFICATION_TYPE":"U","REF_FRAME":"TEME","GP_ID":"218577914","EPHEMERIS_TYPE":"0","RA_OF_ASC_NODE":"14.3049","OBJECT_TYPE":"PAYLOAD","SEMIMAJOR_AXIS":"6917.925","TLE_LINE2":"2 51994  53.2198  14.3049 0002064  37.8709 322.2428 15.08825550 41013","MEAN_MOTION":"15.08825550","MEAN_MOTION_DOT":"-0.00001855","EPOCH":"2022-11-23T20:54:47.849760","TLE_LINE1":"1 51994U 22025AQ  22327.87138715 -.00001855  00000-0 -98506-4 0  9998","MEAN_ELEMENT_THEORY":"SGP4","APOAPSIS":"541.217","SITE":"AFETR","PERIAPSIS":"538.362","ELEMENT_SET_NO":"999","NORAD_CAT_ID":"51994","RCS_SIZE":"LARGE","LAUNCH_DATE":"2022-03-09","INCLINATION":"53.2198","ARG_OF_PERICENTER":"37.8709","BSTAR":"-0.00009850600000","COUNTRY_CODE":"US"},{"LAUNCH_DATE":"2022-03-09","ARG_OF_PERICENTER":"39.6864","INCLINATION":"53.2188","BSTAR":"-0.00007780300000","COUNTRY_CODE":"US","RCS_SIZE":"LARGE","NORAD_CAT_ID":"51995","PERIAPSIS":"538.416","ELEMENT_SET_NO":"999","TLE_LINE1":"1 51995U 22025AR  22327.55122147 -.00001526  00000-0 -77803-4 0  9998","APOAPSIS":"541.117","MEAN_ELEMENT_THEORY":"SGP4","SITE":"AFETR","TLE_LINE2":"2 51995  53.2188  15.7273 0001952  39.6864 320.4270 15.08833161 39428","SEMIMAJOR_AXIS":"6917.901","MEAN_MOTION_DOT":"-0.00001526","MEAN_MOTION":"15.08833161","EPOCH":"2022-11-23T13:13:45.535008","CLASSIFICATION_TYPE":"U","FILE":"3668134","GP_ID":"218545231","EPHEMERIS_TYPE":"0","RA_OF_ASC_NODE":"15.7273","REF_FRAME":"TEME","OBJECT_TYPE":"PAYLOAD","OBJECT_ID":"2022-025AR","TIME_SYSTEM":"UTC","OBJECT_NAME":"STARLINK-3636","ECCENTRICITY":"0.00019520","MEAN_ANOMALY":"320.4270","PERIOD":"95.438","MEAN_MOTION_DDOT":"0.0000000000000","CENTER_NAME":"EARTH","DECAY_DATE":null,"REV_AT_EPOCH":"3942"},{"EPOCH":"2022-11-23T09:41:47.378112","MEAN_MOTION":"15.08835766","MEAN_MOTION_DOT":"-0.00001445","SEMIMAJOR_AXIS":"6917.893","TLE_LINE2":"2 51996  53.2190  16.4015 0001916  50.7109 309.4053 15.08835766 39418","OBJECT_TYPE":"PAYLOAD","REF_FRAME":"TEME","RA_OF_ASC_NODE":"16.4015","GP_ID":"218544002","EPHEMERIS_TYPE":"0","FILE":"3668134","CLASSIFICATION_TYPE":"U","PERIOD":"95.438","ECCENTRICITY":"0.00019160","MEAN_ANOMALY":"309.4053","TIME_SYSTEM":"UTC","OBJECT_NAME":"STARLINK-3538","OBJECT_ID":"2022-025AS","REV_AT_EPOCH":"3941","DECAY_DATE":null,"CENTER_NAME":"EARTH","MEAN_MOTION_DDOT":"0.0000000000000","COUNTRY_CODE":"US","BSTAR":"-0.00007269000000","INCLINATION":"53.2190","ARG_OF_PERICENTER":"50.7109","LAUNCH_DATE":"2022-03-09","NORAD_CAT_ID":"51996","RCS_SIZE":"LARGE","ELEMENT_SET_NO":"999","PERIAPSIS":"538.433","SITE":"AFETR","TLE_LINE1":"1 51996U 22025AS  22327.40402058 -.00001445  00000-0 -72690-4 0  9994","MEAN_ELEMENT_THEORY":"SGP4","APOAPSIS":"541.084"}];
